{
  "type": "FeatureCollection",
  "features": [
    {
      "type": "Feature",
      "properties": {
        "norad_id": 66475,
        "name": "STARLINK-35538",
        "group": "last-30-days",
        "lat": -38.82077626307062,
        "lon": 6.568355515946451,
        "alt_km": 441.36746199298796,
        "timestamp": "2025-12-13T13:34:33.863310+00:00",
        "meta_object_name": "STARLINK-35538",
        "meta_object_id": "2025-262V",
        "meta_epoch": "2025-12-12T20:00:01.999872",
        "meta_mean_motion": 15.45507861,
        "meta_eccentricity": 9.881e-05,
        "meta_inclination": 42.9997,
        "meta_ra_of_asc_node": 70.5177,
        "meta_arg_of_pericenter": 283.1688,
        "meta_mean_anomaly": 254.9926,
        "meta_ephemeris_type": 0,
        "meta_classification_type": "U",
        "meta_norad_cat_id": 66475,
        "meta_element_set_no": 999,
        "meta_rev_at_epoch": 565,
        "meta_bstar": -0.047082155,
        "meta_mean_motion_dot": -0.02055951,
        "meta_mean_motion_ddot": 0,
        "tle_line1": "1 66475U 25262V   25346.83335648 -.02055951  00000+0 -47082-1 0  9995",
        "tle_line2": "2 66475  42.9997  70.5177 0000988 283.1688 254.9926 15.45507861  5653"
      },
      "geometry": {
        "type": "Point",
        "coordinates": [
          6.568355515946451,
          -38.82077626307062
        ]
      }
    },
    {
      "type": "Feature",
      "properties": {
        "norad_id": 66476,
        "name": "STARLINK-35372",
        "group": "last-30-days",
        "lat": -22.222746552577114,
        "lon": 40.18868808902096,
        "alt_km": 405.4313107733806,
        "timestamp": "2025-12-13T13:34:33.863321+00:00",
        "meta_object_name": "STARLINK-35372",
        "meta_object_id": "2025-262W",
        "meta_epoch": "2025-12-12T14:32:19.822272",
        "meta_mean_motion": 15.50958906,
        "meta_eccentricity": 0.00239183,
        "meta_inclination": 43.0006,
        "meta_ra_of_asc_node": 71.8125,
        "meta_arg_of_pericenter": 267.4659,
        "meta_mean_anomaly": 92.3463,
        "meta_ephemeris_type": 0,
        "meta_classification_type": "U",
        "meta_norad_cat_id": 66476,
        "meta_element_set_no": 999,
        "meta_rev_at_epoch": 543,
        "meta_bstar": 0.0022723739,
        "meta_mean_motion_dot": 0.00138743,
        "meta_mean_motion_ddot": 0,
        "tle_line1": "1 66476U 25262W   25346.60578498  .00138743  00000+0  22724-2 0  9997",
        "tle_line2": "2 66476  43.0006  71.8125 0023918 267.4659  92.3463 15.50958906  5437"
      },
      "geometry": {
        "type": "Point",
        "coordinates": [
          40.18868808902096,
          -22.222746552577114
        ]
      }
    },
    {
      "type": "Feature",
      "properties": {
        "norad_id": 66477,
        "name": "STARLINK-35354",
        "group": "last-30-days",
        "lat": -18.91837428440134,
        "lon": 44.59856311946395,
        "alt_km": 411.75714253596016,
        "timestamp": "2025-12-13T13:34:33.863330+00:00",
        "meta_object_name": "STARLINK-35354",
        "meta_object_id": "2025-262X",
        "meta_epoch": "2025-12-12T14:31:15.560544",
        "meta_mean_motion": 15.51223996,
        "meta_eccentricity": 0.00035747,
        "meta_inclination": 43.0004,
        "meta_ra_of_asc_node": 71.8056,
        "meta_arg_of_pericenter": 301.0265,
        "meta_mean_anomaly": 59.0244,
        "meta_ephemeris_type": 0,
        "meta_classification_type": "U",
        "meta_norad_cat_id": 66477,
        "meta_element_set_no": 999,
        "meta_rev_at_epoch": 554,
        "meta_bstar": 0.0031918459,
        "meta_mean_motion_dot": 0.00196158,
        "meta_mean_motion_ddot": 0,
        "tle_line1": "1 66477U 25262X   25346.60504121  .00196158  00000+0  31918-2 0  9999",
        "tle_line2": "2 66477  43.0004  71.8056 0003574 301.0265  59.0244 15.51223996  5547"
      },
      "geometry": {
        "type": "Point",
        "coordinates": [
          44.59856311946395,
          -18.91837428440134
        ]
      }
    },
    {
      "type": "Feature",
      "properties": {
        "norad_id": 66478,
        "name": "STARLINK-35283",
        "group": "last-30-days",
        "lat": -17.548564385938565,
        "lon": 46.33349757915518,
        "alt_km": 412.6651187633415,
        "timestamp": "2025-12-13T13:34:33.863339+00:00",
        "meta_object_name": "STARLINK-35283",
        "meta_object_id": "2025-262Y",
        "meta_epoch": "2025-12-12T12:58:00.522912",
        "meta_mean_motion": 15.51222697,
        "meta_eccentricity": 0.00023418,
        "meta_inclination": 43.0003,
        "meta_ra_of_asc_node": 72.1778,
        "meta_arg_of_pericenter": 281.5101,
        "meta_mean_anomaly": 78.5496,
        "meta_ephemeris_type": 0,
        "meta_classification_type": "U",
        "meta_norad_cat_id": 66478,
        "meta_element_set_no": 999,
        "meta_rev_at_epoch": 553,
        "meta_bstar": 0.0031433488,
        "meta_mean_motion_dot": 0.00193071,
        "meta_mean_motion_ddot": 0,
        "tle_line1": "1 66478U 25262Y   25346.54028383  .00193071  00000+0  31433-2 0  9997",
        "tle_line2": "2 66478  43.0003  72.1778 0002341 281.5101  78.5496 15.51222697  5535"
      },
      "geometry": {
        "type": "Point",
        "coordinates": [
          46.33349757915518,
          -17.548564385938565
        ]
      }
    },
    {
      "type": "Feature",
      "properties": {
        "norad_id": 66479,
        "name": "STARLINK-35581",
        "group": "last-30-days",
        "lat": -21.974409127547847,
        "lon": 40.53178948950171,
        "alt_km": 410.9200642307478,
        "timestamp": "2025-12-13T13:34:33.863348+00:00",
        "meta_object_name": "STARLINK-35581",
        "meta_object_id": "2025-262Z",
        "meta_epoch": "2025-12-12T22:15:49.912128",
        "meta_mean_motion": 15.50939138,
        "meta_eccentricity": 0.00099564,
        "meta_inclination": 43.0004,
        "meta_ra_of_asc_node": 69.926,
        "meta_arg_of_pericenter": 10.0695,
        "meta_mean_anomaly": 350.0364,
        "meta_ephemeris_type": 0,
        "meta_classification_type": "U",
        "meta_norad_cat_id": 66479,
        "meta_element_set_no": 999,
        "meta_rev_at_epoch": 559,
        "meta_bstar": 0.0028073661,
        "meta_mean_motion_dot": 0.00170434,
        "meta_mean_motion_ddot": 0,
        "tle_line1": "1 66479U 25262Z   25346.92766102  .00170434  00000+0  28074-2 0  9993",
        "tle_line2": "2 66479  43.0004  69.9260 0009956  10.0695 350.0364 15.50939138  5591"
      },
      "geometry": {
        "type": "Point",
        "coordinates": [
          40.53178948950171,
          -21.974409127547847
        ]
      }
    },
    {
      "type": "Feature",
      "properties": {
        "norad_id": 66480,
        "name": "STARLINK-35670",
        "group": "last-30-days",
        "lat": -19.25502791391856,
        "lon": 44.1647207616495,
        "alt_km": 415.53542204510177,
        "timestamp": "2025-12-13T13:34:33.863357+00:00",
        "meta_object_name": "STARLINK-35670",
        "meta_object_id": "2025-262AA",
        "meta_epoch": "2025-12-12T22:14:32.372448",
        "meta_mean_motion": 15.5064621,
        "meta_eccentricity": 0.00015097,
        "meta_inclination": 42.9994,
        "meta_ra_of_asc_node": 69.9199,
        "meta_arg_of_pericenter": 277.5365,
        "meta_mean_anomaly": 82.5323,
        "meta_ephemeris_type": 0,
        "meta_classification_type": "U",
        "meta_norad_cat_id": 66480,
        "meta_element_set_no": 999,
        "meta_rev_at_epoch": 559,
        "meta_bstar": 0.0024120974,
        "meta_mean_motion_dot": 0.00144145,
        "meta_mean_motion_ddot": 0,
        "tle_line1": "1 66480U 25262AA  25346.92676357  .00144145  00000+0  24121-2 0  9996",
        "tle_line2": "2 66480  42.9994  69.9199 0001509 277.5365  82.5323 15.50646210  5598"
      },
      "geometry": {
        "type": "Point",
        "coordinates": [
          44.1647207616495,
          -19.25502791391856
        ]
      }
    },
    {
      "type": "Feature",
      "properties": {
        "norad_id": 66481,
        "name": "STARLINK-35698",
        "group": "last-30-days",
        "lat": -18.077498369079148,
        "lon": 45.670030980141625,
        "alt_km": 415.5583348267637,
        "timestamp": "2025-12-13T13:34:33.863367+00:00",
        "meta_object_name": "STARLINK-35698",
        "meta_object_id": "2025-262AB",
        "meta_epoch": "2025-12-12T22:14:02.415840",
        "meta_mean_motion": 15.50637253,
        "meta_eccentricity": 0.00019586,
        "meta_inclination": 42.9999,
        "meta_ra_of_asc_node": 69.9158,
        "meta_arg_of_pericenter": 271.5353,
        "meta_mean_anomaly": 88.5283,
        "meta_ephemeris_type": 0,
        "meta_classification_type": "U",
        "meta_norad_cat_id": 66481,
        "meta_element_set_no": 999,
        "meta_rev_at_epoch": 559,
        "meta_bstar": 0.0016894487,
        "meta_mean_motion_dot": 0.00100259,
        "meta_mean_motion_ddot": 0,
        "tle_line1": "1 66481U 25262AB  25346.92641685  .00100259  00000+0  16894-2 0  9999",
        "tle_line2": "2 66481  42.9999  69.9158 0001958 271.5353  88.5283 15.50637253  5596"
      },
      "geometry": {
        "type": "Point",
        "coordinates": [
          45.670030980141625,
          -18.077498369079148
        ]
      }
    }
  ]
}